SWARM A                 
1 39452U 13067B   26170.54243470  .00008409  00000+0  14425-3 0  9994
2 39452  87.3318  55.3665 0003036  96.1481 264.0126 15.50991800706615
SWARM C                 
1 39453U 13067C   26170.54232392  .00008388  00000+0  14388-3 0  9990
2 39453  87.3317  53.9477 0003036  96.1057 264.0550 15.50990165706578
BRITE-CA1 (TORONTO)     
1 40020U 14033L   26170.61967506  .00000553  00000+0  91013-4 0  9993
2 40020  97.9743 299.5027 0077212 269.0848  90.1513 14.72679560642577
OCO 2                   
1 40059U 14035A   26170.55891542  .00000303  00000+0  77346-4 0  9992
2 40059  98.2017 111.8158 0001503  84.6983 275.4387 14.57112875636393
BRITE-PL2 (HEWELIUSZ)   
1 40119U 14049B   26170.58252109  .00001660  00000+0  15858-3 0  9993
2 40119  97.9101 282.6009 0015364 101.3495 258.9452 14.94600826641807
MMS 1                   
1 40482U 15011A   26170.66668981 -.00000615  00000+0  00000+0 0  9993
2 40482  72.1432 348.7667 8320851 167.4878 191.4135  0.28343970  1380
MMS 2                   
1 40483U 15011B   26170.66668981 -.00000615  00000+0  00000+0 0  9994
2 40483  72.1444 348.7689 8321688 167.4940 191.3992  0.28344424  1382
MMS 3                   
1 40484U 15011C   26170.66668981 -.00000615  00000+0  00000+0 0  9995
2 40484  72.1475 348.7734 8320869 167.4886 191.3943  0.28344391  1386
MMS 4                   
1 40485U 15011D   26170.66668981 -.00000615  00000+0  00000+0 0  9996
2 40485  72.1425 348.7692 8320430 167.4958 191.3860  0.28343947  1383
ASTROSAT                
1 40930U 15052A   26170.24424001  .00001352  00000+0  82956-4 0  9996
2 40930   5.9955 140.5370 0007646  62.3423 297.7480 14.82510285580134
DAMPE                   
1 41173U 15078A   26170.58702037  .00001341  00000+0  47578-4 0  9998
2 41173  97.4554 176.0662 0013777  69.6119 290.6600 15.30791798584917
PISAT                   
1 41784U 16059B   26170.45994244  .00000646  00000+0  11764-3 0  9999
2 41784  97.8178 170.8151 0028576 195.3619 164.6722 14.68986663520070
HXMT (HUIYAN)           
1 42758U 17034A   26170.43658834  .00002273  00000+0  11861-3 0  9991
2 42758  43.0125 170.5154 0030876 161.6536 198.5432 15.18487849498006
FLYING LAPTOP           
1 42831U 17042G   26170.58519150  .00002746  00000+0  21787-3 0  9998
2 42831  97.4700 326.0254 0019671 113.9180 246.4108 15.01158625486812
ZHANGHENG 1-01 (CSES-1) 
1 43194U 18015C   26170.63922535  .00005309  00000+0  24298-3 0  9991
2 43194  97.6878 336.3450 0017088 257.1793 102.7532 15.20836489465012
SALSAT                  
1 46495U 20068K   26170.56565365  .00006150  00000+0  21565-3 0  9994
2 46495  97.8853 173.7751 0007913 298.1437  61.9002 15.29827493315721
IXPE                    
1 49954U 21121A   26170.66668981  .00009125  00000+0  48596-3 0  9995
2 49954   0.2299 298.8822 0007482 116.5640  36.1821 15.10268711  5343
SMILE                   
1 69123U 26109A   26158.38327019 -.00000041  00000+0 -36778-3 0  9994
2 69123  69.9787 209.3069 3310191 288.5544  45.7342  7.54049028  2480
