OBJECT_NAME,OBJECT_ID,EPOCH,MEAN_MOTION,ECCENTRICITY,INCLINATION,RA_OF_ASC_NODE,ARG_OF_PERICENTER,MEAN_ANOMALY,EPHEMERIS_TYPE,CLASSIFICATION_TYPE,NORAD_CAT_ID,ELEMENT_SET_NO,REV_AT_EPOCH,BSTAR,MEAN_MOTION_DOT,MEAN_MOTION_DDOT
SWARM A,2013-067B,2026-06-19T13:01:06.358080,15.50991800,.00030361,87.3318,55.3665,96.1481,264.0126,0,U,39452,999,70661,.14424704E-3,.8409E-4,0
SWARM C,2013-067C,2026-06-19T13:00:56.786688,15.50990165,.00030363,87.3317,53.9477,96.1057,264.0550,0,U,39453,999,70657,.14388181E-3,.8388E-4,0
BRITE-CA1 (TORONTO),2014-033L,2026-06-19T14:52:19.925184,14.72679560,.00772127,97.9743,299.5027,269.0848,90.1513,0,U,40020,999,64257,.91013456E-4,.553E-5,0
OCO 2,2014-035A,2026-06-19T13:24:50.292288,14.57112875,.00015032,98.2017,111.8158,84.6983,275.4387,0,U,40059,999,63639,.77346304E-4,.303E-5,0
BRITE-PL2 (HEWELIUSZ),2014-049B,2026-06-19T13:58:49.822176,14.94600826,.00153645,97.9101,282.6009,101.3495,258.9452,0,U,40119,999,64180,.15857707E-3,.166E-4,0
MMS 1,2015-011A,2026-06-19T16:00:01.999584,0.28343970,.83208514,72.1432,348.7667,167.4878,191.4135,0,U,40482,999,138,0,-.615E-5,0
MMS 2,2015-011B,2026-06-19T16:00:01.999584,0.28344424,.83216887,72.1444,348.7689,167.4940,191.3992,0,U,40483,999,138,0,-.615E-5,0
MMS 3,2015-011C,2026-06-19T16:00:01.999584,0.28344391,.83208693,72.1475,348.7734,167.4886,191.3943,0,U,40484,999,138,0,-.615E-5,0
MMS 4,2015-011D,2026-06-19T16:00:01.999584,0.28343947,.832043,72.1425,348.7692,167.4958,191.3860,0,U,40485,999,138,0,-.615E-5,0
ASTROSAT,2015-052A,2026-06-19T05:51:42.336864,14.82510285,.00076466,5.9955,140.5370,62.3423,297.7480,0,U,40930,999,58013,.82955803E-4,.1352E-4,0
DAMPE,2015-078A,2026-06-19T14:05:18.559968,15.30791798,.00137775,97.4554,176.0662,69.6119,290.6600,0,U,41173,999,58491,.47577795E-4,.1341E-4,0
PISAT,2016-059B,2026-06-19T11:02:19.026816,14.68986663,.00285769,97.8178,170.8151,195.3619,164.6722,0,U,41784,999,52007,.11764091E-3,.646E-5,0
HXMT (HUIYAN),2017-034A,2026-06-19T10:28:41.232576,15.18487849,.0030876,43.0125,170.5154,161.6536,198.5432,0,U,42758,999,49800,.11860867E-3,.2273E-4,0
FLYING LAPTOP,2017-042G,2026-06-19T14:02:40.545600,15.01158625,.00196711,97.4700,326.0254,113.9180,246.4108,0,U,42831,999,48681,.21786579E-3,.2746E-4,0
ZHANGHENG 1-01 (CSES-1),2018-015C,2026-06-19T15:20:29.070240,15.20836489,.00170883,97.6878,336.3450,257.1793,102.7532,0,U,43194,999,46501,.24298207E-3,.5309E-4,0
SALSAT,2020-068K,2026-06-19T13:34:32.475360,15.29827493,.00079133,97.8853,173.7751,298.1437,61.9002,0,U,46495,999,31572,.21565431E-3,.615E-4,0
IXPE,2021-121A,2026-06-19T16:00:01.999584,15.10268711,.00074829,0.2299,298.8822,116.5640,36.1821,0,U,49954,999,534,.48596328E-3,.9125E-4,0
SMILE,2026-109A,2026-06-07T09:11:54.544416,7.54049028,.3310191,69.9787,209.3069,288.5544,45.7342,0,U,69123,999,248,-.36778157E-3,-.41E-6,0
